{
  "type": "FeatureCollection",
  "features": [
    {
      "type": "Feature",
      "properties": {
        "norad_id": 66568,
        "name": "STARLINK-35803",
        "group": "last-30-days",
        "lat": -1.4843125385678575,
        "lon": 97.82699799254529,
        "alt_km": 414.36475777675787,
        "timestamp": "2025-12-16T10:53:44.204993+00:00",
        "meta_object_name": "STARLINK-35803",
        "meta_object_id": "2025-268M",
        "meta_epoch": "2025-12-15T16:21:14.632704",
        "meta_mean_motion": 15.50582544,
        "meta_eccentricity": 9.557e-05,
        "meta_inclination": 42.9957,
        "meta_ra_of_asc_node": 103.9413,
        "meta_arg_of_pericenter": 297.4388,
        "meta_mean_anomaly": 62.6375,
        "meta_ephemeris_type": 0,
        "meta_classification_type": "U",
        "meta_norad_cat_id": 66568,
        "meta_element_set_no": 999,
        "meta_rev_at_epoch": 508,
        "meta_bstar": 0.00097560652,
        "meta_mean_motion_dot": 0.0005732,
        "meta_mean_motion_ddot": 0,
        "tle_line1": "1 66568U 25268M   25349.68141936  .00057320  00000+0  97561-3 0  9992",
        "tle_line2": "2 66568  42.9957 103.9413 0000955 297.4388  62.6375 15.50582544  5081"
      },
      "geometry": {
        "type": "Point",
        "coordinates": [
          97.82699799254529,
          -1.4843125385678575
        ]
      }
    },
    {
      "type": "Feature",
      "properties": {
        "norad_id": 66569,
        "name": "STARLINK-35835",
        "group": "last-30-days",
        "lat": -0.14673156777457827,
        "lon": 99.2607219232808,
        "alt_km": 414.38619497626314,
        "timestamp": "2025-12-16T10:53:44.205004+00:00",
        "meta_object_name": "STARLINK-35835",
        "meta_object_id": "2025-268N",
        "meta_epoch": "2025-12-15T17:53:30.134688",
        "meta_mean_motion": 15.50581218,
        "meta_eccentricity": 0.00013774,
        "meta_inclination": 43.0003,
        "meta_ra_of_asc_node": 103.5637,
        "meta_arg_of_pericenter": 270.128,
        "meta_mean_anomaly": 89.9422,
        "meta_ephemeris_type": 0,
        "meta_classification_type": "U",
        "meta_norad_cat_id": 66569,
        "meta_element_set_no": 999,
        "meta_rev_at_epoch": 509,
        "meta_bstar": 0.0014471406,
        "meta_mean_motion_dot": 0.00085494,
        "meta_mean_motion_ddot": 0,
        "tle_line1": "1 66569U 25268N   25349.74548767  .00085494  00000+0  14471-2 0  9994",
        "tle_line2": "2 66569  43.0003 103.5637 0001377 270.1280  89.9422 15.50581218  5091"
      },
      "geometry": {
        "type": "Point",
        "coordinates": [
          99.2607219232808,
          -0.14673156777457827
        ]
      }
    },
    {
      "type": "Feature",
      "properties": {
        "norad_id": 66570,
        "name": "STARLINK-35834",
        "group": "last-30-days",
        "lat": 1.1610479692218278,
        "lon": 100.65871179718177,
        "alt_km": 413.9115509575495,
        "timestamp": "2025-12-16T10:53:44.205014+00:00",
        "meta_object_name": "STARLINK-35834",
        "meta_object_id": "2025-268P",
        "meta_epoch": "2025-12-15T17:53:00.601440",
        "meta_mean_motion": 15.50576778,
        "meta_eccentricity": 0.00015175,
        "meta_inclination": 43.0015,
        "meta_ra_of_asc_node": 103.56,
        "meta_arg_of_pericenter": 287.477,
        "meta_mean_anomaly": 72.5924,
        "meta_ephemeris_type": 0,
        "meta_classification_type": "U",
        "meta_norad_cat_id": 66570,
        "meta_element_set_no": 999,
        "meta_rev_at_epoch": 509,
        "meta_bstar": 0.00163027,
        "meta_mean_motion_dot": 0.00096477,
        "meta_mean_motion_ddot": 0,
        "tle_line1": "1 66570U 25268P   25349.74514585  .00096477  00000+0  16303-2 0  9996",
        "tle_line2": "2 66570  43.0015 103.5600 0001517 287.4770  72.5924 15.50576778  5097"
      },
      "geometry": {
        "type": "Point",
        "coordinates": [
          100.65871179718177,
          1.1610479692218278
        ]
      }
    },
    {
      "type": "Feature",
      "properties": {
        "norad_id": 66571,
        "name": "STARLINK-35836",
        "group": "last-30-days",
        "lat": 2.452596547026341,
        "lon": 102.04289573961343,
        "alt_km": 413.47722967006575,
        "timestamp": "2025-12-16T10:53:44.205024+00:00",
        "meta_object_name": "STARLINK-35836",
        "meta_object_id": "2025-268Q",
        "meta_epoch": "2025-12-15T16:19:45.764256",
        "meta_mean_motion": 15.50585283,
        "meta_eccentricity": 0.00014873,
        "meta_inclination": 42.9954,
        "meta_ra_of_asc_node": 103.9347,
        "meta_arg_of_pericenter": 312.1791,
        "meta_mean_anomaly": 47.8943,
        "meta_ephemeris_type": 0,
        "meta_classification_type": "U",
        "meta_norad_cat_id": 66571,
        "meta_element_set_no": 999,
        "meta_rev_at_epoch": 508,
        "meta_bstar": 0.0011259195,
        "meta_mean_motion_dot": 0.00066287,
        "meta_mean_motion_ddot": 0,
        "tle_line1": "1 66571U 25268Q   25349.68039079  .00066287  00000+0  11259-2 0  9991",
        "tle_line2": "2 66571  42.9954 103.9347 0001487 312.1791  47.8943 15.50585283  5081"
      },
      "geometry": {
        "type": "Point",
        "coordinates": [
          102.04289573961343,
          2.452596547026341
        ]
      }
    },
    {
      "type": "Feature",
      "properties": {
        "norad_id": 66572,
        "name": "STARLINK-35870",
        "group": "last-30-days",
        "lat": 3.7583153026214338,
        "lon": 103.44745886988285,
        "alt_km": 414.0963815633695,
        "timestamp": "2025-12-16T10:53:44.205037+00:00",
        "meta_object_name": "STARLINK-35870",
        "meta_object_id": "2025-268R",
        "meta_epoch": "2025-12-15T17:52:01.245504",
        "meta_mean_motion": 15.50594165,
        "meta_eccentricity": 0.00014954,
        "meta_inclination": 42.9995,
        "meta_ra_of_asc_node": 103.5566,
        "meta_arg_of_pericenter": 266.7473,
        "meta_mean_anomaly": 93.3216,
        "meta_ephemeris_type": 0,
        "meta_classification_type": "U",
        "meta_norad_cat_id": 66572,
        "meta_element_set_no": 999,
        "meta_rev_at_epoch": 509,
        "meta_bstar": 0.00095913059,
        "meta_mean_motion_dot": 0.00056363,
        "meta_mean_motion_ddot": 0,
        "tle_line1": "1 66572U 25268R   25349.74445886  .00056363  00000+0  95913-3 0  9990",
        "tle_line2": "2 66572  42.9995 103.5566 0001495 266.7473  93.3216 15.50594165  5095"
      },
      "geometry": {
        "type": "Point",
        "coordinates": [
          103.44745886988285,
          3.7583153026214338
        ]
      }
    },
    {
      "type": "Feature",
      "properties": {
        "norad_id": 66573,
        "name": "STARLINK-35650",
        "group": "last-30-days",
        "lat": 5.073504021375459,
        "lon": 104.86870197859199,
        "alt_km": 412.7662236557744,
        "timestamp": "2025-12-16T10:53:44.205047+00:00",
        "meta_object_name": "STARLINK-35650",
        "meta_object_id": "2025-268S",
        "meta_epoch": "2025-12-15T16:18:46.744416",
        "meta_mean_motion": 15.50589212,
        "meta_eccentricity": 0.00015462,
        "meta_inclination": 42.9911,
        "meta_ra_of_asc_node": 103.931,
        "meta_arg_of_pericenter": 343.0592,
        "meta_mean_anomaly": 17.0216,
        "meta_ephemeris_type": 0,
        "meta_classification_type": "U",
        "meta_norad_cat_id": 66573,
        "meta_element_set_no": 999,
        "meta_rev_at_epoch": 508,
        "meta_bstar": 0.001308297,
        "meta_mean_motion_dot": 0.00077199,
        "meta_mean_motion_ddot": 0,
        "tle_line1": "1 66573U 25268S   25349.67970769  .00077199  00000+0  13083-2 0  9993",
        "tle_line2": "2 66573  42.9911 103.9310 0001546 343.0592  17.0216 15.50589212  5082"
      },
      "geometry": {
        "type": "Point",
        "coordinates": [
          104.86870197859199,
          5.073504021375459
        ]
      }
    },
    {
      "type": "Feature",
      "properties": {
        "norad_id": 66574,
        "name": "STARLINK-35812",
        "group": "last-30-days",
        "lat": 7.918297251862664,
        "lon": 107.96741719835946,
        "alt_km": 411.6937968986267,
        "timestamp": "2025-12-16T10:53:44.205059+00:00",
        "meta_object_name": "STARLINK-35812",
        "meta_object_id": "2025-268T",
        "meta_epoch": "2025-12-14T01:39:20.923488",
        "meta_mean_motion": 15.50571155,
        "meta_eccentricity": 0.00014446,
        "meta_inclination": 42.9999,
        "meta_ra_of_asc_node": 113.3431,
        "meta_arg_of_pericenter": 286.1846,
        "meta_mean_anomaly": 73.8855,
        "meta_ephemeris_type": 0,
        "meta_classification_type": "U",
        "meta_norad_cat_id": 66574,
        "meta_element_set_no": 999,
        "meta_rev_at_epoch": 483,
        "meta_bstar": 0.002097662,
        "meta_mean_motion_dot": 0.00124662,
        "meta_mean_motion_ddot": 0,
        "tle_line1": "1 66574U 25268T   25348.06899217  .00124662  00000+0  20977-2 0  9992",
        "tle_line2": "2 66574  42.9999 113.3431 0001444 286.1846  73.8855 15.50571155  4832"
      },
      "geometry": {
        "type": "Point",
        "coordinates": [
          107.96741719835946,
          7.918297251862664
        ]
      }
    }
  ]
}